H1 CPF  1  DLR 2021 08 04 10  7162 technosat            
H2  1704205 6203    42829 2021 08 04 00 00 00 2021 08 11 00 00 00    60 1 1  0 0 0
H9
10 0 59431  36000.000000  0       -778596.839       1232442.346      -6825387.423
10 0 59431  36060.000000  0       -349043.275       1088913.793      -6884405.050
10 0 59431  36120.000000  0         80677.314        937075.086      -6914440.788
10 0 59431  36180.000000  0        508698.935        777566.705      -6915362.048
10 0 59431  36240.000000  0        933167.601        611077.561      -6887157.317
10 0 59431  36300.000000  0       1352249.306        438342.101      -6829936.268
10 0 59431  36360.000000  0       1764137.799        260137.150      -6743929.418
10 0 59431  36420.000000  0       2167062.215         77278.535      -6629487.376
10 0 59431  36480.000000  0       2559294.629       -109382.504      -6487079.746
10 0 59431  36540.000000  0       2939157.547       -298963.159      -6317293.467
10 0 59431  36600.000000  0       3305031.078       -490553.131      -6120830.602
10 0 59431  36660.000000  0       3655359.835       -683218.852      -5898505.760
10 0 59431  36720.000000  0       3988659.652       -876007.872      -5651243.142
10 0 59431  36780.000000  0       4303524.113      -1067953.479      -5380073.127
10 0 59431  36840.000000  0       4598630.776      -1258079.488      -5086128.305
10 0 59431  36900.000000  0       4872747.014      -1445405.120      -4770639.046
10 0 59431  36960.000000  0       5124735.489      -1628949.974      -4434928.649
10 0 59431  37020.000000  0       5353559.248      -1807739.080      -4080408.043
10 0 59431  37080.000000  0       5558286.382      -1980808.005      -3708570.064
10 0 59431  37140.000000  0       5738094.245      -2147207.977      -3320983.301
10 0 59431  37200.000000  0       5892273.157      -2306011.023      -2919285.552
10 0 59431  37260.000000  0       6020229.597      -2456315.055      -2505176.904
10 0 59431  37320.000000  0       6121488.831      -2597248.888      -2080412.474
10 0 59431  37380.000000  0       6195696.959      -2727977.141      -1646794.876
10 0 59431  37440.000000  0       6242622.439      -2847705.014      -1206166.437
10 0 59431  37500.000000  0       6262157.005      -2955682.915       -760401.141
10 0 59431  37560.000000  0       6254315.938      -3051210.893       -311396.375
10 0 59431  37620.000000  0       6219237.723      -3133642.819        138935.424
10 0 59431  37680.000000  0       6157183.150      -3202390.345        588675.208
10 0 59431  37740.000000  0       6068533.834      -3256926.591       1035905.887
10 0 59431  37800.000000  0       5953790.018      -3296789.506       1478720.957
10 0 59431  37860.000000  0       5813567.708      -3321584.856       1915233.006
10 0 59431  37920.000000  0       5648595.281      -3330988.896       2343581.996
10 0 59431  37980.000000  0       5459709.664      -3324750.725       2761943.482
10 0 59431  38040.000000  0       5247851.896      -3302694.192       3168536.733
10 0 59431  38100.000000  0       5014062.153      -3264719.374       3561632.489
10 0 59431  38160.000000  0       4759474.419      -3210803.708       3939560.390
10 0 59431  38220.000000  0       4485310.797      -3141002.777       4300716.194
10 0 59431  38280.000000  0       4192875.373      -3055450.701       4643568.732
10 0 59431  38340.000000  0       3883547.622      -2954360.108       4966666.454
10 0 59431  38400.000000  0       3558775.545      -2838021.645       5268643.480
10 0 59431  38460.000000  0       3220068.616      -2706803.108       5548225.243
10 0 59431  38520.000000  0       2868990.525      -2561148.200       5804233.694
10 0 59431  38580.000000  0       2507151.729      -2401574.955       6035592.094
10 0 59431  38640.000000  0       2136201.839      -2228673.771       6241329.314
10 0 59431  38700.000000  0       1757821.957      -2043105.109       6420583.639
10 0 59431  38760.000000  0       1373716.931      -1845596.869       6572606.164
10 0 59431  38820.000000  0        985607.535      -1636941.392       6696763.639
10 0 59431  38880.000000  0        595222.732      -1417992.184       6792540.815
10 0 59431  38940.000000  0        204291.965      -1189660.348       6859542.361
10 0 59431  39000.000000  0       -185462.505       -952910.692       6897494.263
10 0 59431  39060.000000  0       -572333.114       -708757.639       6906244.705
10 0 59431  39120.000000  0       -954634.401       -458260.873       6885764.588
10 0 59431  39180.000000  0      -1330710.314       -202520.713       6836147.494
10 0 59431  39240.000000  0      -1698941.293         57326.707       6757609.182
10 0 59431  39300.000000  0      -2057751.157        320114.470       6650486.650
10 0 59431  39360.000000  0      -2405613.811        584650.077       6515236.697
10 0 59431  39420.000000  0      -2741059.686        849720.818       6352434.021
10 0 59431  39480.000000  0      -3062681.905       1114099.269       6162768.885
10 0 59431  39540.000000  0      -3369142.198       1376548.925       5947044.332
10 0 59431  39600.000000  0      -3659176.523       1635829.935       5706172.928
10 0 59431  39660.000000  0      -3931600.338       1890704.918       5441173.075
10 0 59431  39720.000000  0      -4185313.557       2139944.864       5153164.871
10 0 59431  39780.000000  0      -4419305.104       2382335.052       4843365.503
10 0 59431  39840.000000  0      -4632657.064       2616680.947       4513084.191
10 0 59431  39900.000000  0      -4824548.354       2841814.035       4163716.737
10 0 59431  39960.000000  0      -4994257.996       3056597.635       3796739.777
10 0 59431  40020.000000  0      -5141167.958       3259932.605       3413704.602
10 0 59431  40080.000000  0      -5264765.477       3450762.944       3016230.675
10 0 59431  40140.000000  0      -5364644.946       3628081.245       2605998.848
10 0 59431  40200.000000  0      -5440509.309       3790934.009       2184744.221
10 0 59431  40260.000000  0      -5492170.892       3938426.682       1754248.728
10 0 59431  40320.000000  0      -5519551.794       4069728.469       1316333.517
10 0 59431  40380.000000  0      -5522683.648       4184076.848        872851.038
10 0 59431  40440.000000  0      -5501706.811       4280781.718        425677.166
10 0 59431  40500.000000  0      -5456869.216       4359229.334        -23296.839
10 0 59431  40560.000000  0      -5388524.625       4418885.818       -472172.533
10 0 59431  40620.000000  0      -5297130.390       4459300.334       -919052.446
10 0 59431  40680.000000  0      -5183244.727       4480107.897      -1362048.319
10 0 59431  40740.000000  0      -5047523.438       4481031.701      -1799289.290
10 0 59431  40800.000000  0      -4890716.205       4461884.969      -2228929.908
10 0 59431  40860.000000  0      -4713662.467       4422572.401      -2649157.999
10 0 59431  40920.000000  0      -4517286.899       4363091.208      -3058202.364
10 0 59431  40980.000000  0      -4302594.507       4283531.675      -3454340.283
10 0 59431  41040.000000  0      -4070665.375       4184077.238      -3835904.683
10 0 59431  41100.000000  0      -3822649.177       4065004.218      -4201291.036
10 0 59431  41160.000000  0      -3559759.350       3926681.067      -4548964.015
10 0 59431  41220.000000  0      -3283267.065       3769567.139      -4877463.685
10 0 59431  41280.000000  0      -2994495.117       3594211.152      -5185411.388
10 0 59431  41340.000000  0      -2694811.598       3401249.238      -5471515.353
10 0 59431  41400.000000  0      -2385623.388       3191402.580      -5734575.915
10 0 59431  41460.000000  0      -2068369.525       2965474.631      -5973490.321
10 0 59431  41520.000000  0      -1744514.512       2724347.945      -6187257.093
10 0 59431  41580.000000  0      -1415541.585       2468980.653      -6374979.945
10 0 59431  41640.000000  0      -1082946.017       2200402.640      -6535871.224
10 0 59431  41700.000000  0       -748228.453       1919711.475      -6669255.014
10 0 59431  41760.000000  0       -412888.213       1628067.927      -6774569.820
10 0 59431  41820.000000  0        -78416.753       1326691.215      -6851370.674
10 0 59431  41880.000000  0        253708.749       1016854.065      -6899330.972
10 0 59431  41940.000000  0        582031.827        699877.490      -6918243.908
10 0 59431  42000.000000  0        905123.064        377125.258      -6908023.399
10 0 59431  42060.000000  0       1221586.236         49998.117      -6868704.467
10 0 59431  42120.000000  0       1530064.232       -280072.142      -6800443.174
10 0 59431  42180.000000  0       1829244.758       -611628.773      -6703516.133
10 0 59431  42240.000000  0       2117865.861       -943196.351      -6578319.684
10 0 59431  42300.000000  0       2394721.304      -1273287.250      -6425368.515
10 0 59431  42360.000000  0       2658665.616      -1600408.169      -6245293.772
10 0 59431  42420.000000  0       2908618.850      -1923066.743      -6038840.830
10 0 59431  42480.000000  0       3143571.132      -2239778.309      -5806866.681
10 0 59431  42540.000000  0       3362586.978      -2549072.830      -5550336.779
10 0 59431  42600.000000  0       3564809.246      -2849501.817      -5270321.300
10 0 59431  42660.000000  0       3749462.656      -3139645.205      -4967990.912
10 0 59431  42720.000000  0       3915856.920      -3418118.130      -4644612.144
10 0 59431  42780.000000  0       4063389.508      -3683577.623      -4301542.378
10 0 59431  42840.000000  0       4191548.063      -3934729.236      -3940224.444
10 0 59431  42900.000000  0       4299912.424      -4170333.559      -3562180.766
10 0 59431  42960.000000  0       4388156.209      -4389212.559      -3169007.072
10 0 59431  43020.000000  0       4456047.954      -4590255.662      -2762365.712
10 0 59431  43080.000000  0       4503451.797      -4772425.588      -2343978.639
10 0 59431  43140.000000  0       4530327.679      -4934763.975      -1915620.066
99
